start=new Date('2022-09-01T00:00:00.000Z').valueOf();
sats=[{"MEAN_MOTION_DOT":"0.00000158","COUNTRY_CODE":"US","TIME_SYSTEM":"UTC","DECAY_DATE":null,"PERIAPSIS":"546.037","OBJECT_NAME":"STARLINK-2648","ECCENTRICITY":"0.00017150","REV_AT_EPOCH":"6992","ELEMENT_SET_NO":"999","MEAN_ANOMALY":"284.9437","SITE":"AFETR","CLASSIFICATION_TYPE":"U","OBJECT_TYPE":"PAYLOAD","PERIOD":"95.592","OBJECT_ID":"2021-044AT","ARG_OF_PERICENTER":"75.1742","SEMIMAJOR_AXIS":"6925.360","APOAPSIS":"548.412","RA_OF_ASC_NODE":"127.5255","FILE":"3552511","MEAN_ELEMENT_THEORY":"SGP4","GP_ID":"211392023","RCS_SIZE":"LARGE","EPOCH":"2022-08-31T01:30:31.762368","EPHEMERIS_TYPE":"0","TLE_LINE1":"1 48679U 21044AT  22243.06286762  .00000158  00000-0  29506-4 0  9995","MEAN_MOTION_DDOT":"0.0000000000000","REF_FRAME":"TEME","CENTER_NAME":"EARTH","NORAD_CAT_ID":"48679","MEAN_MOTION":"15.06396357","INCLINATION":"53.0560","LAUNCH_DATE":"2021-05-26","TLE_LINE2":"2 48679  53.0560 127.5255 0001715  75.1742 284.9437 15.06396357 69920","BSTAR":"0.00002950600000"},{"APOAPSIS":"548.225","SEMIMAJOR_AXIS":"6925.376","OBJECT_ID":"2021-044AU","ARG_OF_PERICENTER":"74.5374","PERIOD":"95.593","OBJECT_TYPE":"PAYLOAD","SITE":"AFETR","CLASSIFICATION_TYPE":"U","ECCENTRICITY":"0.00014210","ELEMENT_SET_NO":"999","REV_AT_EPOCH":"7002","MEAN_ANOMALY":"285.5772","TIME_SYSTEM":"UTC","OBJECT_NAME":"STARLINK-2649","PERIAPSIS":"546.257","DECAY_DATE":null,"COUNTRY_CODE":"US","MEAN_MOTION_DOT":"0.00000261","BSTAR":"0.00003645300000","LAUNCH_DATE":"2021-05-26","INCLINATION":"53.0540","TLE_LINE2":"2 48680  53.0540 124.5639 0001421  74.5374 285.5772 15.06391138 70025","NORAD_CAT_ID":"48680","CENTER_NAME":"EARTH","MEAN_MOTION":"15.06391138","TLE_LINE1":"1 48680U 21044AU  22243.72265549  .00000261  00000-0  36453-4 0  9994","RCS_SIZE":"LARGE","EPHEMERIS_TYPE":"0","EPOCH":"2022-08-31T17:20:37.434336","REF_FRAME":"TEME","MEAN_MOTION_DDOT":"0.0000000000000","MEAN_ELEMENT_THEORY":"SGP4","GP_ID":"211424746","FILE":"3552761","RA_OF_ASC_NODE":"124.5639"},{"FILE":"3552761","RA_OF_ASC_NODE":"95.0907","GP_ID":"211423494","MEAN_ELEMENT_THEORY":"SGP4","MEAN_MOTION":"15.06391540","NORAD_CAT_ID":"48681","CENTER_NAME":"EARTH","MEAN_MOTION_DDOT":"0.0000000000000","REF_FRAME":"TEME","TLE_LINE1":"1 48681U 21044AV  22243.65541653  .00000401  00000-0  45795-4 0  9995","RCS_SIZE":"LARGE","EPOCH":"2022-08-31T15:43:47.988192","EPHEMERIS_TYPE":"0","BSTAR":"0.00004579500000","TLE_LINE2":"2 48681  53.0556  95.0907 0001537  89.2346 270.8819 15.06391540 70423","INCLINATION":"53.0556","LAUNCH_DATE":"2021-05-26","OBJECT_NAME":"STARLINK-2725","PERIAPSIS":"546.175","DECAY_DATE":null,"TIME_SYSTEM":"UTC","COUNTRY_CODE":"US","MEAN_MOTION_DOT":"0.00000401","SITE":"AFETR","CLASSIFICATION_TYPE":"U","MEAN_ANOMALY":"270.8819","ELEMENT_SET_NO":"999","ECCENTRICITY":"0.00015370","REV_AT_EPOCH":"7042","ARG_OF_PERICENTER":"89.2346","OBJECT_ID":"2021-044AV","OBJECT_TYPE":"PAYLOAD","PERIOD":"95.593","APOAPSIS":"548.304","SEMIMAJOR_AXIS":"6925.374"},{"FILE":"3552601","RA_OF_ASC_NODE":"83.8495","GP_ID":"211398390","MEAN_ELEMENT_THEORY":"SGP4","MEAN_MOTION":"15.06376213","NORAD_CAT_ID":"48682","CENTER_NAME":"EARTH","REF_FRAME":"TEME","MEAN_MOTION_DDOT":"0.0000000000000","TLE_LINE1":"1 48682U 21044AW  22243.91667824  .00017779  00000-0  12102-2 0  9994","RCS_SIZE":"LARGE","EPHEMERIS_TYPE":"0","EPOCH":"2022-08-31T22:00:00.999936","BSTAR":"0.00121020000000","TLE_LINE2":"2 48682  53.0540  83.8495 0001615  70.1519 282.6113 15.06376213 71443","LAUNCH_DATE":"2021-05-26","INCLINATION":"53.0540","PERIAPSIS":"546.168","OBJECT_NAME":"STARLINK-2743","DECAY_DATE":null,"TIME_SYSTEM":"UTC","COUNTRY_CODE":"US","MEAN_MOTION_DOT":"0.00017779","SITE":"AFETR","CLASSIFICATION_TYPE":"U","MEAN_ANOMALY":"282.6113","REV_AT_EPOCH":"7144","ELEMENT_SET_NO":"999","ECCENTRICITY":"0.00016150","ARG_OF_PERICENTER":"70.1519","OBJECT_ID":"2021-044AW","PERIOD":"95.594","OBJECT_TYPE":"PAYLOAD","APOAPSIS":"548.405","SEMIMAJOR_AXIS":"6925.421"},{"OBJECT_TYPE":"PAYLOAD","PERIOD":"95.593","OBJECT_ID":"2021-044AX","ARG_OF_PERICENTER":"81.0222","SEMIMAJOR_AXIS":"6925.366","APOAPSIS":"548.180","COUNTRY_CODE":"US","MEAN_MOTION_DOT":"0.00000944","PERIAPSIS":"546.282","OBJECT_NAME":"STARLINK-2756","DECAY_DATE":null,"TIME_SYSTEM":"UTC","MEAN_ANOMALY":"279.0922","ECCENTRICITY":"0.00013700","ELEMENT_SET_NO":"999","REV_AT_EPOCH":"7060","SITE":"AFETR","CLASSIFICATION_TYPE":"U","REF_FRAME":"TEME","MEAN_MOTION_DDOT":"0.0000000000000","TLE_LINE1":"1 48683U 21044AX  22243.87377849  .00000944  00000-0  82256-4 0  9990","RCS_SIZE":"LARGE","EPHEMERIS_TYPE":"0","EPOCH":"2022-08-31T20:58:14.461536","MEAN_MOTION":"15.06394328","CENTER_NAME":"EARTH","NORAD_CAT_ID":"48683","TLE_LINE2":"2 48683  53.0556  83.8942 0001370  81.0222 279.0922 15.06394328 70600","LAUNCH_DATE":"2021-05-26","INCLINATION":"53.0556","BSTAR":"0.00008225600000","RA_OF_ASC_NODE":"83.8942","FILE":"3552761","GP_ID":"211424496","MEAN_ELEMENT_THEORY":"SGP4"},{"MEAN_ELEMENT_THEORY":"SGP4","GP_ID":"211424247","FILE":"3552761","RA_OF_ASC_NODE":"100.0186","BSTAR":"0.00016523000000","INCLINATION":"53.0545","LAUNCH_DATE":"2021-05-26","TLE_LINE2":"2 48684  53.0545 100.0186 0001466  79.9404 280.1750 15.06397020 70362","NORAD_CAT_ID":"48684","CENTER_NAME":"EARTH","MEAN_MOTION":"15.06397020","TLE_LINE1":"1 48684U 21044AY  22243.69735465  .00002180  00000-0  16523-3 0  9990","EPHEMERIS_TYPE":"0","RCS_SIZE":"LARGE","EPOCH":"2022-08-31T16:44:11.441760","MEAN_MOTION_DDOT":"0.0000000000000","REF_FRAME":"TEME","SITE":"AFETR","CLASSIFICATION_TYPE":"U","REV_AT_EPOCH":"7036","ECCENTRICITY":"0.00014660","ELEMENT_SET_NO":"999","MEAN_ANOMALY":"280.1750","TIME_SYSTEM":"UTC","OBJECT_NAME":"STARLINK-2741","PERIAPSIS":"546.207","DECAY_DATE":null,"COUNTRY_CODE":"US","MEAN_MOTION_DOT":"0.00002180","APOAPSIS":"548.238","SEMIMAJOR_AXIS":"6925.358","OBJECT_ID":"2021-044AY","ARG_OF_PERICENTER":"79.9404","PERIOD":"95.592","OBJECT_TYPE":"PAYLOAD"},{"OBJECT_TYPE":"PAYLOAD","PERIOD":"95.593","OBJECT_ID":"2021-044AZ","ARG_OF_PERICENTER":"95.1964","SEMIMAJOR_AXIS":"6925.397","APOAPSIS":"548.146","COUNTRY_CODE":"US","MEAN_MOTION_DOT":"0.00003073","OBJECT_NAME":"STARLINK-2751","PERIAPSIS":"546.379","DECAY_DATE":null,"TIME_SYSTEM":"UTC","MEAN_ANOMALY":"264.9171","ELEMENT_SET_NO":"999","ECCENTRICITY":"0.00012760","REV_AT_EPOCH":"7058","SITE":"AFETR","CLASSIFICATION_TYPE":"U","MEAN_MOTION_DDOT":"0.0000000000000","REF_FRAME":"TEME","TLE_LINE1":"1 48685U 21044AZ  22243.71161115  .00003073  00000-0  22520-3 0  9995","RCS_SIZE":"LARGE","EPOCH":"2022-08-31T17:04:43.203360","EPHEMERIS_TYPE":"0","MEAN_MOTION":"15.06384126","NORAD_CAT_ID":"48685","CENTER_NAME":"EARTH","TLE_LINE2":"2 48685  53.0551  84.6612 0001276  95.1964 264.9171 15.06384126 70585","LAUNCH_DATE":"2021-05-26","INCLINATION":"53.0551","BSTAR":"0.00022520000000","RA_OF_ASC_NODE":"84.6612","FILE":"3552761","GP_ID":"211422995","MEAN_ELEMENT_THEORY":"SGP4"},{"RA_OF_ASC_NODE":"89.9120","FILE":"3552761","GP_ID":"211423245","MEAN_ELEMENT_THEORY":"SGP4","REF_FRAME":"TEME","MEAN_MOTION_DDOT":"0.0000000000000","EPOCH":"2022-08-31T16:56:07.041984","RCS_SIZE":"LARGE","EPHEMERIS_TYPE":"0","TLE_LINE1":"1 48686U 21044BA  22243.70563706  .00002273  00000-0  17145-3 0  9995","MEAN_MOTION":"15.06397370","CENTER_NAME":"EARTH","NORAD_CAT_ID":"48686","TLE_LINE2":"2 48686  53.0544  89.9120 0001650  73.6918 286.4253 15.06397370 70503","LAUNCH_DATE":"2021-05-26","INCLINATION":"53.0544","BSTAR":"0.00017145000000","MEAN_MOTION_DOT":"0.00002273","COUNTRY_CODE":"US","DECAY_DATE":null,"OBJECT_NAME":"STARLINK-2629","PERIAPSIS":"546.079","TIME_SYSTEM":"UTC","MEAN_ANOMALY":"286.4253","REV_AT_EPOCH":"7050","ECCENTRICITY":"0.00016500","ELEMENT_SET_NO":"999","CLASSIFICATION_TYPE":"U","SITE":"AFETR","OBJECT_TYPE":"PAYLOAD","PERIOD":"95.592","ARG_OF_PERICENTER":"73.6918","OBJECT_ID":"2021-044BA","SEMIMAJOR_AXIS":"6925.357","APOAPSIS":"548.364"},{"CENTER_NAME":"EARTH","NORAD_CAT_ID":"48687","MEAN_MOTION":"15.06387968","TLE_LINE1":"1 48687U 21044BB  22243.74707764  .00000249  00000-0  35622-4 0  9996","RCS_SIZE":"LARGE","EPOCH":"2022-08-31T17:55:47.508096","EPHEMERIS_TYPE":"0","REF_FRAME":"TEME","MEAN_MOTION_DDOT":"0.0000000000000","BSTAR":"0.00003562200000","INCLINATION":"53.0540","LAUNCH_DATE":"2021-05-26","TLE_LINE2":"2 48687  53.0540  79.4458 0001350  96.1095 264.0048 15.06387968 70653","FILE":"3552761","RA_OF_ASC_NODE":"79.4458","MEAN_ELEMENT_THEORY":"SGP4","GP_ID":"211423997","ARG_OF_PERICENTER":"96.1095","OBJECT_ID":"2021-044BB","PERIOD":"95.593","OBJECT_TYPE":"PAYLOAD","APOAPSIS":"548.185","SEMIMAJOR_AXIS":"6925.385","TIME_SYSTEM":"UTC","OBJECT_NAME":"STARLINK-2627","PERIAPSIS":"546.316","DECAY_DATE":null,"COUNTRY_CODE":"US","MEAN_MOTION_DOT":"0.00000249","SITE":"AFETR","CLASSIFICATION_TYPE":"U","REV_AT_EPOCH":"7065","ECCENTRICITY":"0.00013500","ELEMENT_SET_NO":"999","MEAN_ANOMALY":"264.0048"},{"RCS_SIZE":"LARGE","EPOCH":"2022-08-30T21:19:04.898496","EPHEMERIS_TYPE":"0","TLE_LINE1":"1 48688U 21044BC  22242.88825114  .00001056  00000-0  89824-4 0  9991","MEAN_MOTION_DDOT":"0.0000000000000","REF_FRAME":"TEME","NORAD_CAT_ID":"48688","CENTER_NAME":"EARTH","MEAN_MOTION":"15.06392285","INCLINATION":"53.0563","LAUNCH_DATE":"2021-05-26","TLE_LINE2":"2 48688  53.0563  83.3006 0001550  96.2153 263.9013 15.06392285 70524","BSTAR":"0.00008982400000","RA_OF_ASC_NODE":"83.3006","FILE":"3552511","MEAN_ELEMENT_THEORY":"SGP4","GP_ID":"211393276","OBJECT_TYPE":"PAYLOAD","PERIOD":"95.593","OBJECT_ID":"2021-044BC","ARG_OF_PERICENTER":"96.2153","SEMIMAJOR_AXIS":"6925.372","APOAPSIS":"548.311","MEAN_MOTION_DOT":"0.00001056","COUNTRY_CODE":"US","TIME_SYSTEM":"UTC","DECAY_DATE":null,"PERIAPSIS":"546.164","OBJECT_NAME":"STARLINK-2742","REV_AT_EPOCH":"7052","ELEMENT_SET_NO":"999","ECCENTRICITY":"0.00015500","MEAN_ANOMALY":"263.9013","CLASSIFICATION_TYPE":"U","SITE":"AFETR"}];
